FENGYUN 1C DEB          
1 30484U 99025AGW 17346.34218532  .00002656  00000-0  42127-3 0  9991
2 30484  99.0059 296.9188 0065324 304.2000  55.3024 14.71783247575645
